ONEWEB-0142             
1 47288U 20100AG  24026.90710301  .00000415  00000+0  11186-2 0  9995
2 47288  87.9029 164.1930 0001338  93.8311 266.2971 13.12441453150254
ONEWEB-0143             
1 47289U 20100AH  24026.93647841 -.00000347  00000+0 -10012-2 0  9990
2 47289  87.9029 164.2060 0001476 102.9695 257.1598 13.12441867150231
ONEWEB-0144             
1 47290U 20100AJ  24026.37582997  .00000447  00000+0  12060-2 0  9994
2 47290  87.9030 164.3010 0001396  85.0371 275.0917 13.12442083150082
ONEWEB-0145             
1 47291U 20100AK  24026.80465203 -.00000117  00000+0 -36013-3 0  9994
2 47291  87.9029 164.2397 0001445  96.2462 263.8831 13.12444493150333
ONEWEB-0146             
1 47292U 20100AL  24026.87612274 -.00000397  00000+0 -11401-2 0  9997
2 47292  87.9030 164.2073 0001797 116.5694 243.5619 13.12443485150250
ONEWEB-0147             
1 47293U 20100AM  24026.76654240  .00000144  00000+0  36420-3 0  9992
2 47293  87.9026 164.2287 0001742  91.6130 268.5198 13.12442217150139
ONEWEB-0115             
1 48042U 21025A   24026.33251122 -.00000369  00000+0 -10448-2 0  9999
2 48042  87.9004 133.9831 0001752 108.5300 251.6019 13.13470273139017
ONEWEB-0152             
1 48043U 21025B   24026.34521145  .00000130  00000+0  31984-3 0  9999
2 48043  87.9010 133.9725 0001770 105.0549 255.0776 13.13472001138977
